NORAD_CAT_ID,OBJECT_NAME,OBJECT_TYPE,EPOCH,MEAN_MOTION,ECCENTRICITY,INCLINATION,RA_OF_ASC_NODE,ARG_OF_PERICENTER,MEAN_ANOMALY,BSTAR,MEAN_MOTION_DOT,MEAN_MOTION_DDOT,TLE_LINE0,TLE_LINE1,TLE_LINE2,SEMIMAJOR_AXIS,PERIOD,APOGEE,PERIGEE,DECAYED
50198.0,STARLINK-3264,PAYLOAD,2024-06-15 08:24:13,15.08847071,0.0001307,53.2166,197.8039,88.1892,271.925,9.8192e-05,1.275e-05,0.0,0 STARLINK-3264,1 50198U 21125AU  24167.35016040  .00001275  00000-0  98192-4 0  9991,2 50198  53.2166 197.8039 0001307  88.1892 271.9250 15.08847071141274,6917.859,95.437,540.628,538.82,0.0
50198.0,STARLINK-3264,PAYLOAD,2024-06-15 19:31:55,15.08845222,0.000129,53.2165,195.7222,88.455,271.659,7.8189e-05,9.57e-06,0.0,0 STARLINK-3264,1 50198U 21125AU  24167.81384064  .00000957  00000-0  78189-4 0  9996,2 50198  53.2165 195.7222 0001290  88.4550 271.6590 15.08845222141347,6917.864,95.437,540.622,538.837,0.0
50198.0,STARLINK-3264,PAYLOAD,2024-06-16 11:25:47,15.08845138,0.0001363,53.2165,192.7476,92.8297,267.2851,6.3898e-05,7.29e-06,0.0,0 STARLINK-3264,1 50198U 21125AU  24168.47623973  .00000729  00000-0  63898-4 0  9992,2 50198  53.2165 192.7476 0001363  92.8297 267.2851 15.08845138141441,6917.865,95.437,540.673,538.787,0.0
50198.0,STARLINK-3264,PAYLOAD,2024-06-17 11:16:34,15.08840085,0.0001353,53.2164,188.288,91.519,268.5958,-6.6954e-06,-3.94e-06,0.0,0 STARLINK-3264,1 50198U 21125AU  24169.46984359 -.00000394  00000-0 -66954-5 0  9997,2 50198  53.2164 188.2880 0001353  91.5190 268.5958 15.08840085141590,6917.88,95.438,540.681,538.809,0.0
50198.0,STARLINK-3264,PAYLOAD,2024-06-18 07:56:35,15.08839682,0.000133,53.2161,184.4222,90.2288,269.8857,4.3528e-05,4.05e-06,0.0,0 STARLINK-3264,1 50198U 21125AU  24170.33096271  .00000405  00000-0  43528-4 0  9994,2 50198  53.2161 184.4222 0001330  90.2288 269.8857 15.08839682141249,6917.881,95.438,540.666,538.826,0.0
50198.0,STARLINK-3264,PAYLOAD,2024-06-18 17:28:54,15.08836087,0.0001301,53.2157,182.638,88.8606,271.2535,2.9961e-05,1.89e-06,0.0,0 STARLINK-3264,1 50198U 21125AU  24170.72840571  .00000189  00000-0  29961-4 0  9991,2 50198  53.2157 182.6380 0001301  88.8606 271.2535 15.08836087141789,6917.892,95.438,540.657,538.857,0.0
50198.0,STARLINK-3264,PAYLOAD,2024-06-19 04:36:36,15.0883312,0.0001332,53.216,180.557,90.7561,269.3584,1.5722e-05,-3.8e-07,0.0,0 STARLINK-3264,1 50198U 21125AU  24171.19208955 -.00000038  00000-0  15722-4 0  9991,2 50198  53.2160 180.5570 0001332  90.7561 269.3584 15.08833120141379,6917.901,95.438,540.688,538.845,0.0
50198.0,STARLINK-3264,PAYLOAD,2024-06-19 07:47:22,15.08833836,0.0001338,53.2162,179.9624,90.6681,269.4465,1.956e-05,2.3e-07,0.0,0 STARLINK-3264,1 50198U 21125AU  24171.32456942  .00000023  00000-0  19560-4 0  9994,2 50198  53.2162 179.9624 0001338  90.6681 269.4465 15.08833836141879,6917.899,95.438,540.69,538.839,0.0
50198.0,STARLINK-3264,PAYLOAD,2024-06-19 17:19:41,15.08834346,0.0001338,53.2162,178.1783,90.1453,269.9692,1.8808e-05,1.1e-07,0.0,0 STARLINK-3264,1 50198U 21125AU  24171.72201039  .00000011  00000-0  18808-4 0  9994,2 50198  53.2162 178.1783 0001338  90.1453 269.9692 15.08834346141939,6917.898,95.438,540.688,538.837,0.0
50198.0,STARLINK-3264,PAYLOAD,2024-06-20 07:38:10,15.088336,0.0001366,53.2165,175.5026,92.7812,267.3336,3.9359e-06,-2.25e-06,0.0,0 STARLINK-3264,1 50198U 21125AU  24172.31817368 -.00000225  00000-0  39359-5 0  9991,2 50198  53.2165 175.5026 0001366  92.7812 267.3336 15.08833600142021,6917.9,95.438,540.71,538.82,0.0
50198.0,STARLINK-3264,PAYLOAD,2024-06-21 09:04:20,15.08838898,0.0001379,53.2171,170.7441,90.389,269.726,7.2875e-05,8.72e-06,0.0,0 STARLINK-3264,1 50198U 21125AU  24173.37801118  .00000872  00000-0  72875-4 0  9990,2 50198  53.2171 170.7441 0001379  90.3890 269.7260 15.08838898141700,6917.884,95.438,540.703,538.795,0.0
50198.0,STARLINK-3264,PAYLOAD,2024-06-22 08:55:07,15.08838949,0.0001424,53.2173,166.2818,89.4357,270.6799,6.7435e-05,7.85e-06,0.0,0 STARLINK-3264,1 50198U 21125AU  24174.37161287  .00000785  00000-0  67435-4 0  9996,2 50198  53.2173 166.2818 0001424  89.4357 270.6799 15.08838949142333,6917.884,95.438,540.734,538.763,0.0
50198.0,STARLINK-3264,PAYLOAD,2024-06-23 08:45:54,15.08843093,0.0001474,53.2175,161.8214,86.9081,273.208,4.4271e-05,4.17e-06,0.0,0 STARLINK-3264,1 50198U 21125AU  24175.36521050  .00000417  00000-0  44271-4 0  9999,2 50198  53.2175 161.8214 0001474  86.9081 273.2080 15.08843093142009,6917.871,95.437,540.756,538.716,0.0
50198.0,STARLINK-3264,PAYLOAD,2024-06-24 08:36:41,15.08839234,0.0001384,53.2172,157.3618,96.7498,263.3651,8.6023e-06,-1.51e-06,0.0,0 STARLINK-3264,1 50198U 21125AU  24176.35881215 -.00000151  00000-0  86023-5 0  9999,2 50198  53.2172 157.3618 0001384  96.7498 263.3651 15.08839234142630,6917.883,95.438,540.705,538.79,0.0
50198.0,STARLINK-3264,PAYLOAD,2024-06-25 03:41:18,15.08841395,0.0001384,53.2175,153.7936,95.8379,264.2771,2.7738e-05,1.54e-06,0.0,0 STARLINK-3264,1 50198U 21125AU  24177.15368963  .00000154  00000-0  27738-4 0  9997,2 50198  53.2175 153.7936 0001384  95.8379 264.2771 15.08841395142751,6917.876,95.437,540.699,538.784,0.0
50198.0,STARLINK-3264,PAYLOAD,2024-06-26 05:07:28,15.08842004,0.0001397,53.2174,149.0367,99.4813,260.6337,6.592e-05,7.61e-06,0.0,0 STARLINK-3264,1 50198U 21125AU  24178.21352786  .00000761  00000-0  65920-4 0  9990,2 50198  53.2174 149.0367 0001397  99.4813 260.6337 15.08842004142434,6917.874,95.437,540.706,538.773,0.0
50198.0,STARLINK-3264,PAYLOAD,2024-06-27 03:22:53,15.088327,0.0001589,53.2178,144.8751,108.7487,251.3678,-1.3025e-05,-4.95e-06,0.0,0 STARLINK-3264,1 50198U 21125AU  24179.14089860 -.00000495  00000-0 -13025-4 0  9998,2 50198  53.2178 144.8751 0001589 108.7487 251.3678 15.08832700142574,6917.903,95.438,540.867,538.668,0.0
50198.0,STARLINK-3264,PAYLOAD,2024-06-27 14:30:35,15.08835003,0.0001466,53.2178,142.7942,98.5649,261.5509,9.2679e-06,-1.4e-06,0.0,0 STARLINK-3264,1 50198U 21125AU  24179.60457859 -.00000140  00000-0  92679-5 0  9995,2 50198  53.2178 142.7942 0001466  98.5649 261.5509 15.08835003143120,6917.896,95.438,540.775,538.746,0.0
50198.0,STARLINK-3264,PAYLOAD,2024-06-28 04:49:03,15.08840035,0.0001391,53.2166,140.1158,91.7912,268.324,3.1395e-05,2.12e-06,0.0,0 STARLINK-3264,1 50198U 21125AU  24180.20073654  .00000212  00000-0  31395-4 0  9996,2 50198  53.2166 140.1158 0001391  91.7912 268.3240 15.08840035142737,6917.88,95.438,540.708,538.783,0.0
50198.0,STARLINK-3264,PAYLOAD,2024-06-28 14:21:22,15.08843493,0.0001426,53.217,138.3297,86.1132,274.0024,5.0989e-05,5.24e-06,0.0,0 STARLINK-3264,1 50198U 21125AU  24180.59817364  .00000524  00000-0  50989-4 0  9998,2 50198  53.2170 138.3297 0001426  86.1132 274.0024 15.08843493143271,6917.87,95.437,540.721,538.748,0.0
50198.0,STARLINK-3264,PAYLOAD,2024-06-29 04:39:49,15.08848501,0.0001215,53.2163,135.6549,95.2215,264.8916,0.00015485,2.178e-05,0.0,0 STARLINK-3264,1 50198U 21125AU  24181.19432867  .00002178  00000-0  15485-3 0  9994,2 50198  53.2163 135.6549 0001215  95.2215 264.8916 15.08848501142880,6917.854,95.437,540.56,538.879,0.0
50198.0,STARLINK-3264,PAYLOAD,2024-06-29 14:12:10,15.08835058,0.0001128,53.2147,133.8661,87.7686,272.3435,-4.4615e-05,-9.98e-06,0.0,0 STARLINK-3264,1 50198U 21125AU  24181.59178281 -.00000998  00000-0 -44615-4 0  9993,2 50198  53.2147 133.8661 0001128  87.7686 272.3435 15.08835058143422,6917.895,95.438,540.541,538.98,0.0
50198.0,STARLINK-3264,PAYLOAD,2024-06-29 20:33:43,15.08829911,0.0001854,53.2159,132.6821,88.9075,271.213,1.2618e-06,-2.68e-06,0.0,0 STARLINK-3264,1 50198U 21125AU  24181.85675008 -.00000268  00000-0  12618-5 0  9999,2 50198  53.2159 132.6821 0001854  88.9075 271.2130 15.08829911142982,6917.911,95.438,541.059,538.494,0.0
50198.0,STARLINK-3264,PAYLOAD,2024-06-30 06:06:01,15.08834901,0.0001314,53.2143,130.8973,113.2034,246.9096,-7.3645e-05,-1.46e-05,0.0,0 STARLINK-3264,1 50198U 21125AU  24182.25418884 -.00001460  00000-0 -73645-4 0  9993,2 50198  53.2143 130.8973 0001314 113.2034 246.9096 15.08834901143527,6917.896,95.438,540.67,538.852,0.0
50198.0,STARLINK-3264,PAYLOAD,2024-07-01 02:46:01,15.08849647,0.000132,53.2162,127.0312,94.8261,265.2882,0.00015244,2.14e-05,0.0,0 STARLINK-3264,1 50198U 21125AU  24183.11529272  .00002140  00000-0  15244-3 0  9997,2 50198  53.2162 127.0312 0001320  94.8261 265.2882 15.08849647143177,6917.851,95.437,540.629,538.803,0.0
50198.0,STARLINK-3264,PAYLOAD,2024-07-01 13:53:43,15.08846999,0.000117,53.2148,124.9503,111.2952,248.8165,4.161e-06,-2.22e-06,0.0,0 STARLINK-3264,1 50198U 21125AU  24183.57897567 -.00000222  00000-0  41610-5 0  9990,2 50198  53.2148 124.9503 0001170 111.2952 248.8165 15.08846999143722,6917.859,95.437,540.533,538.915,0.0
50198.0,STARLINK-3264,PAYLOAD,2024-07-01 20:15:16,15.08831385,0.0001518,53.2163,123.7618,100.8671,259.2492,0.00012492,1.7e-05,0.0,0 STARLINK-3264,1 50198U 21125AU  24183.84394432  .00001700  00000-0  12492-3 0  9998,2 50198  53.2163 123.7618 0001518 100.8671 259.2492 15.08831385143284,6917.907,95.438,540.822,538.722,0.0
50198.0,STARLINK-3264,PAYLOAD,2024-07-02 05:47:35,15.08835573,0.0001483,53.218,121.9766,95.9164,264.1998,6.1224e-05,6.86e-06,0.0,0 STARLINK-3264,1 50198U 21125AU  24184.24138737  .00000686  00000-0  61224-4 0  9997,2 50198  53.2180 121.9766 0001483  95.9164 264.1998 15.08835573143828,6917.894,95.438,540.785,538.733,0.0
50198.0,STARLINK-3264,PAYLOAD,2024-07-03 02:27:36,15.08849398,0.0001241,53.2166,118.1093,93.6073,266.5061,-2.3248e-05,-6.58e-06,0.0,0 STARLINK-3264,1 50198U 21125AU  24185.10250045 -.00000658  00000-0 -23248-4 0  9995,2 50198  53.2166 118.1093 0001241  93.6073 266.5061 15.08849398143477,6917.852,95.437,540.575,538.858,0.0
50198.0,STARLINK-3264,PAYLOAD,2024-07-03 11:59:54,15.08850284,0.0001276,53.217,116.3252,93.6995,266.4143,-1.0276e-05,-4.51e-06,0.0,0 STARLINK-3264,1 50198U 21125AU  24185.49993730 -.00000451  00000-0 -10276-4 0  9990,2 50198  53.2170 116.3252 0001276  93.6995 266.4143 15.08850284144017,6917.849,95.437,540.597,538.831,0.0
